[{"OBJECT_NAME":"STARLINK-4137","OBJECT_ID":"2022-076AX","EPOCH":"2026-03-09T05:22:21.793440","MEAN_MOTION":15.08842432,"ECCENTRICITY":0.00013785,"INCLINATION":53.2171,"RA_OF_ASC_NODE":76.2113,"ARG_OF_PERICENTER":97.5661,"MEAN_ANOMALY":262.5488,"EPHEMERIS_TYPE":0,"CLASSIFICATION_TYPE":"U","NORAD_CAT_ID":53031,"ELEMENT_SET_NO":999,"REV_AT_EPOCH":20305,"BSTAR":-2.54542e-7,"MEAN_MOTION_DOT":-2.92e-6,"MEAN_MOTION_DDOT":0},{"OBJECT_NAME":"SL-24 PLAT","OBJECT_ID":"2014-033AR","EPOCH":"2026-03-09T22:47:27.152448","MEAN_MOTION":15.0919716,"ECCENTRICITY":0.00052059,"INCLINATION":98.0981,"RA_OF_ASC_NODE":61.9435,"ARG_OF_PERICENTER":212.2329,"MEAN_ANOMALY":147.8581,"EPHEMERIS_TYPE":0,"CLASSIFICATION_TYPE":"U","NORAD_CAT_ID":40049,"ELEMENT_SET_NO":999,"REV_AT_EPOCH":63724,"BSTAR":0.00046923352,"MEAN_MOTION_DOT":7.393e-5,"MEAN_MOTION_DDOT":0}]
